MOLNIYA 2-9             
1 07276U 74026A   22009.68875739  .00000086  00000+0  00000+0 0  9999
2 07276  64.2566 249.8624 6562770 283.2228  15.7848  2.45095686245322
MOLNIYA 2-10            
1 07376U 74056A   22011.29603970 -.00000423  00000+0  00000+0 0  9995
2 07376  63.9200 110.9437 6691284 288.0341  13.4167  2.01197007347195
MOLNIYA 1-S             
1 07392U 74060A   22011.72602361 -.00000324  00000+0  00000+0 0  9999
2 07392   5.5082 285.3289 0009943 202.8952 352.2082  1.00269584117953
MOLNIYA 1-29            
1 07780U 75036A   22010.66741143  .00000276  00000+0 -24731-1 0  9993
2 07780  63.3552 233.5198 7028565 289.4529  11.1327  2.00593458342450
MOLNIYA 2-14            
1 08195U 75081A   22010.81902052  .00000802  00000+0  00000+0 0  9994
2 08195  63.3671 205.3905 6911591 293.7468  10.6932  2.02053364339704
MOLNIYA 1-32            
1 08601U 76006A   22011.05438741  .00000989  00000+0 -72762-3 0  9995
2 08601  63.3559 320.3041 7340620 283.1962  10.7434  2.00054166 49516
MOLNIYA 1-36            
1 09880U 77021A   22010.84863190  .00000646  00000+0 -10797-2 0  9998
2 09880  63.1894 290.5587 7299289 289.2215   9.7286  2.00344946226205
MOLNIYA 3-8             
1 10455U 77105A   22012.07622971  .00000060  00000+0 -22284-3 0  9993
2 10455  63.0058  22.3149 7395802 281.3810  10.6960  2.00420057323928
MOLNIYA 1-40            
1 10925U 78055A   22012.17512881 -.00000523  00000+0  00000+0 0  9991
2 10925  62.9879  70.4937 7224307 280.0929  12.1530  2.00544099319575
MOLNIYA 3-10            
1 11057U 78095A   22012.19025811 -.00000132  00000+0 -45990-3 0  9994
2 11057  62.9235  97.3489 5812926 308.4711  12.3566  4.09835682377331
MOLNIYA 3-13            
1 11896U 80063A   22012.43557925  .00000154  00000+0  00000+0 0  9997
2 11896  62.6216 157.0644 7049107 276.1280  14.5078  2.00564382304014
MOLNIYA 1-49            
1 12156U 81009A   22010.69460883  .00001160  00000+0 -79146-3 0  9990
2 12156  61.7212 189.1234 7199639 260.0275  19.1625  2.05697330218246
MOLNIYA 1-52            
1 13012U 81123A   22011.34444727 -.00000056  00000+0 -30471-2 0  9992
2 13012  62.2640 302.4707 7288923 252.6279  21.8989  2.00880963293427
MOLNIYA 1-53            
1 13070U 82015A   22011.26119563  .00001655  00000+0  15605-1 0  9990
2 13070  62.5342 234.4429 7153891 282.0612  12.1959  2.00558618292104
MOLNIYA 3-20            
1 13875U 83015A   22010.98458920 -.00001478  00000+0  59017-3 0  9996
2 13875  63.1032  17.6209 7384723 256.8729  18.7565  2.00767997220552
MOLNIYA 1-56            
1 13890U 83019A   22012.11179312 -.00000094  00000+0  78140-4 0  9991
2 13890  63.0472  43.1063 7412177 262.8494  16.0309  1.99824914283487
MOLNIYA 1-62            
1 15214U 84089A   22012.08129891  .00010260  00000+0  11951-2 0  9994
2 15214  62.7928  43.5634 7538885 269.7555  12.7326  1.98638847241166
MOLNIYA 1-63            
1 15429U 84124A   22011.55866442  .00000745  00000+0  00000+0 0  9990
2 15429  63.6459 182.5155 6565417 261.1328  30.9485  2.00341896271619
MOLNIYA 3-24            
1 15738U 85040A   22010.90207700 -.00000039  00000+0  00000+0 0  9992
2 15738  63.7554 111.3583 6724598 247.7887  31.4024  2.55627149299849
MOLNIYA 3-27            
1 16393U 85117A   22011.44591807 -.00000098  00000+0  00000+0 0  9994
2 16393  64.5117 101.3943 6881582 249.9295  28.0080  2.12397923270866
MOLNIYA 1-69            
1 17078U 86089A   22011.05835955 -.00000054  00000+0  00000+0 0  9998
2 17078  64.0716 201.3822 6599628 260.1096  25.0604  2.00985511257682
MOLNIYA 3-31            
1 17328U 87008A   22010.89555464 -.00000175  00000+0  00000+0 0  9997
2 17328  63.7607 146.7533 6909410 255.0373  24.6092  2.00604944252703
MOLNIYA 1-71            
1 18946U 88017A   22010.91988526  .00000457  00000+0  00000+0 0  9999
2 18946  63.4550 142.8074 7026793 257.1169  22.2609  2.00577595247895
MOLNIYA 1-75            
1 19807U 89014A   22009.01808834  .00001032  00000+0  00000+0 0  9996
2 19807  64.1467 302.7068 6942027 267.9801  18.3066  2.00407746240802
MOLNIYA 1-80            
1 21118U 91012A   22011.25028600  .00000453  00000+0  00000+0 0  9995
2 21118  65.1266 350.3713 6841610 279.7467  14.8417  2.05234262227755
MOLNIYA 3-40            
1 21196U 91022A   22008.24255180  .00000151  00000+0  00000+0 0  9997
2 21196  65.1044 344.1813 6875253 276.4871  15.6835  2.02992956226435
MOLNIYA 1-81            
1 21426U 91043A   22011.51493582 -.00000253  00000+0  00000+0 0  9994
2 21426  64.1996   4.1195 7114864 268.0803  16.6963  2.00606700223997
MOLNIYA 3-41            
1 21706U 91065A   22012.30270976  .00000584  00000+0  00000+0 0  9993
2 21706  64.1132 182.5846 6751537 257.7396  24.7819  2.04342367223731
MOLNIYA 3-42            
1 22178U 92067A   22008.65909111  .00000158  00000+0  00000+0 0  9990
2 22178  64.6827 232.9971 6482536 269.6915  21.5180  2.20434196 76539
MOLNIYA 1-86            
1 22671U 93035A   22011.94730167  .00000054  00000+0  20331-3 0  9991
2 22671  63.1607 327.5527 4828851   4.7760 358.5115  5.62636978343497
MOLNIYA 1-87            
1 22949U 93079A   22011.30849268 -.00000612  00000+0  00000+0 0  9998
2 22949  63.7176 109.9905 6824322 285.4403  13.3179  2.02882957 71740
MOLNIYA 1-88            
1 23420U 94081A   22011.84105873  .00000102  00000+0  00000+0 0  9996
2 23420  64.2761 230.5585 5860377 285.8906  19.7177  3.34495942241700
MOLNIYA 3-47            
1 23642U 95042A   22012.29718498  .00000193  00000+0  00000+0 0  9993
2 23642  63.7633  92.2607 6880874 285.5467  12.9323  2.01980891193956
MOLNIYA 1-90            
1 24960U 97054A   22011.51508383  .00000143  00000+0  20902-2 0  9997
2 24960  63.6329 198.5390 6177500 299.7937  13.0139  3.18686915203086
MOLNIYA 1-91            
1 25485U 98054A   22011.51274635  .00000183  00000+0  22925-2 0  9992
2 25485  62.9920 174.6807 6815429 291.8575  15.6960  2.36442992174672
MOLNIYA 3-50            
1 25847U 99036A   22010.99304272 -.00000491  00000+0  16577-3 0  9997
2 25847  63.0112 359.3292 7431648 280.9995  10.5984  2.00617275164951
